ALOS (DAICHI)           
1 28931U 06002A   24210.11090206  .00002798  00000+0  51840-3 0  9995
2 28931  98.0383 162.3066 0002147  63.2237 296.9186 14.66068546987345
